
    {
      "objectName": "STARLINK-32405",
      "objectId": "2024-191R",
      "noradId": 61636,
      "epochUtc": "2026-03-16T19:51:22.562208Z",
      "meanMotionRevPerDay": 15.27569485,
      "eccentricity": 0.0001827,
      "inclinationDeg": 43.0037,
      "raanDeg": 118.0371,
      "argPerigeeDeg": 253.8552,
      "meanAnomalyDeg": 106.2099,
      "bstar": 0.0001383,
      "meanMotionDot": 0.00003544,
      "meanMotionDdot": 0,
      "elementSetNo": 999,
      "revAtEpoch": 7858
    },
    {
      "objectName": "STARLINK-32349",
      "objectId": "2024-195P",
      "noradId": 61700,
      "epochUtc": "2026-03-16T13:38:45.133152Z",
      "meanMotionRevPerDay": 15.30184221,
      "eccentricity": 0.0000874,
      "inclinationDeg": 53.158,
      "raanDeg": 123.4754,
      "argPerigeeDeg": 83.303,
      "meanAnomalyDeg": 276.807,
      "bstar": 0.00004788,
      "meanMotionDot": 0.00001059,
      "meanMotionDdot": 0,
      "elementSetNo": 999,
      "revAtEpoch": 7823
    },
    {
      "objectName": "STARLINK-32299",
      "objectId": "2024-195R",
      "noradId": 61702,
      "epochUtc": "2026-03-16T13:05:19.900608Z",
      "meanMotionRevPerDay": 15.30185588,
      "eccentricity": 0.0001162,
      "inclinationDeg": 53.1606,
      "raanDeg": 123.3289,
      "argPerigeeDeg": 68.5194,
      "meanAnomalyDeg": 291.593,
      "bstar": 0.000010695,
      "meanMotionDot": -4.2e-7,
      "meanMotionDdot": 0,
      "elementSetNo": 999,
      "revAtEpoch": 7830
    },
    {
      "objectName": "STARLINK-32352",
      "objectId": "2024-202C",
      "noradId": 61847,
      "epochUtc": "2026-03-16T15:44:19.270176Z",
      "meanMotionRevPerDay": 15.27574438,
      "eccentricity": 0.0001285,
      "inclinationDeg": 43.0008,
      "raanDeg": 187.3469,
      "argPerigeeDeg": 276.4056,
      "meanAnomalyDeg": 83.6649,
      "bstar": 0.000093768,
      "meanMotionDot": 0.00002319,
      "meanMotionDdot": 0,
      "elementSetNo": 999,
      "revAtEpoch": 7653
    },
    {
      "objectName": "STARLINK-32391",
      "objectId": "2024-202L",
      "noradId": 61855,
      "epochUtc": "2026-03-16T15:31:20.396640Z",
      "meanMotionRevPerDay": 15.2757264,
      "eccentricity": 0.0000626,
      "inclinationDeg": 43.0048,
      "raanDeg": 198.528,
      "argPerigeeDeg": 269.0826,
      "meanAnomalyDeg": 90.9954,
      "bstar": 0.000044026,
      "meanMotionDot": 0.0000095,
      "meanMotionDdot": 0,
      "elementSetNo": 999,
      "revAtEpoch": 7639
    },
    {
      "objectName": "STARLINK-32556",
      "objectId": "2024-202P",
      "noradId": 61858,
      "epochUtc": "2026-03-16T15:42:25.805376Z",
      "meanMotionRevPerDay": 15.27587123,
      "eccentricity": 0.0000836,
      "inclinationDeg": 43.0019,
      "raanDeg": 198.5844,
      "argPerigeeDeg": 242.0059,
      "meanAnomalyDeg": 118.0708,
      "bstar": -0.000015456,
      "meanMotionDot": -0.00000687,
      "meanMotionDdot": 0,
      "elementSetNo": 999,
      "revAtEpoch": 7640
    },
    {
      "objectName": "STARLINK-32316",
      "objectId": "2024-202R",
      "noradId": 61860,
      "epochUtc": "2026-03-16T15:28:20.134272Z",
      "meanMotionRevPerDay": 15.27576224,
      "eccentricity": 0.0002844,
      "inclinationDeg": 43.0037,
      "raanDeg": 195.0481,
      "argPerigeeDeg": 261.4663,
      "meanAnomalyDeg": 98.5867,
      "bstar": -0.000036909,
      "meanMotionDot": -0.00001278,
      "meanMotionDdot": 0,
      "elementSetNo": 999,
      "revAtEpoch": 7643
    },
    {
      "objectName": "STARLINK-11402 [DTC]",
      "objectId": "2024-204A",
      "noradId": 61874,
      "epochUtc": "2026-03-16T20:15:14.243904Z",
      "meanMotionRevPerDay": 15.69716061,
      "eccentricity": 0.0001197,
      "inclinationDeg": 53.1591,
      "raanDeg": 321.3568,
      "argPerigeeDeg": 93.0152,
      "meanAnomalyDeg": 267.1003,
      "bstar": 0.000040703,
      "meanMotionDot": 0.00004346,
      "meanMotionDdot": 0,
      "elementSetNo": 999,
      "revAtEpoch": 7862
    },
    {
      "objectName": "STARLINK-11321 [DTC]",
      "objectId": "2024-204D",
      "noradId": 61877,
      "epochUtc": "2026-03-16T20:01:06.244320Z",
      "meanMotionRevPerDay": 15.69668041,
      "eccentricity": 0.0000683,
      "inclinationDeg": 53.1576,
      "raanDeg": 321.2682,
      "argPerigeeDeg": 311.563,
      "meanAnomalyDeg": 48.5329,
      "bstar": -0.00010575,
      "meanMotionDot": -0.00013355,
      "meanMotionDdot": 0,
      "elementSetNo": 999,
      "revAtEpoch": 7802
    },
    {
      "objectName": "STARLINK-11383 [DTC]",
      "objectId": "2024-204K",
      "noradId": 61883,
      "epochUtc": "2026-03-16T20:43:19.750656Z",
      "meanMotionRevPerDay": 15.69714807,
      "eccentricity": 0.0000679,
      "inclinationDeg": 53.1584,
      "raanDeg": 320.7257,
      "argPerigeeDeg": 127.6101,
      "meanAnomalyDeg": 232.4978,
      "bstar": 0.000014841,
      "meanMotionDot": 0.00001211,
      "meanMotionDdot": 0,
      "elementSetNo": 999,
      "revAtEpoch": 7804
    },
    {
      "objectName": "STARLINK-11351 [DTC]",
      "objectId": "2024-204N",
      "noradId": 61886,
      "epochUtc": "2026-03-16T20:29:11.856480Z",
      "meanMotionRevPerDay": 15.69724432,
      "eccentricity": 0.0000554,
      "inclinationDeg": 53.1581,
      "raanDeg": 320.659,
      "argPerigeeDeg": 129.9458,
      "meanAnomalyDeg": 230.1608,
      "bstar": 0.00002477,
      "meanMotionDot": 0.00002416,
      "meanMotionDdot": 0,
      "elementSetNo": 999,
      "revAtEpoch": 7804
    },
    {
      "objectName": "STARLINK-32489",
      "objectId": "2024-204V",
      "noradId": 61893,
      "epochUtc": "2026-03-15T18:46:02.336736Z",
      "meanMotionRevPerDay": 15.30181291,
      "eccentricity": 0.00011667,
      "inclinationDeg": 53.1608,
      "raanDeg": 98.5425,
      "argPerigeeDeg": 100.8552,
      "meanAnomalyDeg": 259.258,
      "bstar": -0.000019664313,
      "meanMotionDot": -0.00000941,
      "meanMotionDdot": 0,
      "elementSetNo": 999,
      "revAtEpoch": 7602
    },
    {
      "objectName": "STARLINK-32303",
      "objectId": "2024-207A",
      "noradId": 61912,
      "epochUtc": "2026-03-16T18:11:34.789056Z",
      "meanMotionRevPerDay": 15.27584815,
      "eccentricity": 0.000177,
      "inclinationDeg": 42.9985,
      "raanDeg": 241.7736,
      "argPerigeeDeg": 282.6182,
      "meanAnomalyDeg": 77.4472,
      "bstar": 0.00063762,
      "meanMotionDot": 0.00017328,
      "meanMotionDdot": 0,
      "elementSetNo": 999,
      "revAtEpoch": 7639
    }