STARLINK-32405          
1 61636U 24191R   26075.82734447  .00003544  00000+0  13830-3 0  9991
2 61636  43.0037 118.0371 0001827 253.8552 106.2099 15.27569485 78587
STARLINK-32349          
1 61700U 24195P   26075.56857793  .00001059  00000+0  47880-4 0  9990
2 61700  53.1580 123.4754 0000874  83.3030 276.8070 15.30184221 78237
STARLINK-32299          
1 61702U 24195R   26075.54536922 -.00000042  00000+0  10695-4 0  9994
2 61702  53.1606 123.3289 0001162  68.5194 291.5930 15.30185588 78301
STARLINK-32352          
1 61847U 24202C   26075.65577859  .00002319  00000+0  93768-4 0  9999
2 61847  43.0008 187.3469 0001285 276.4056  83.6649 15.27574438 76530
STARLINK-32391          
1 61855U 24202L   26075.64676385  .00000950  00000+0  44026-4 0  9993
2 61855  43.0048 198.5280 0000626 269.0826  90.9954 15.27572640 76396
STARLINK-32556          
1 61858U 24202P   26075.65446534 -.00000687  00000+0 -15456-4 0  9992
2 61858  43.0019 198.5844 0000836 242.0059 118.0708 15.27587123 76408
STARLINK-32316          
1 61860U 24202R   26075.64467748 -.00001278  00000+0 -36909-4 0  9997
2 61860  43.0037 195.0481 0002844 261.4663  98.5867 15.27576224 76438
STARLINK-11402 [DTC]    
1 61874U 24204A   26075.84391486  .00004346  00000+0  40703-4 0  9995
2 61874  53.1591 321.3568 0001197  93.0152 267.1003 15.69716061 78622
STARLINK-11321 [DTC]    
1 61877U 24204D   26075.83410005 -.00013355  00000+0 -10575-3 0  9991
2 61877  53.1576 321.2682 0000683 311.5630  48.5329 15.69668041 78022
STARLINK-11383 [DTC]    
1 61883U 24204K   26075.86342304  .00001211  00000+0  14841-4 0  9994
2 61883  53.1584 320.7257 0000679 127.6101 232.4978 15.69714807 78042
STARLINK-11351 [DTC]    
1 61886U 24204N   26075.85360945  .00002416  00000+0  24770-4 0  9997
2 61886  53.1581 320.6590 0000554 129.9458 230.1608 15.69724432 78043
STARLINK-32489          
1 61893U 24204V   26074.78197149 -.00000941  00000+0 -19664-4 0  9999
2 61893  53.1608  98.5425 0001166 100.8552 259.2580 15.30181291 76027
STARLINK-32303          
1 61912U 24207A   26075.75804154  .00017328  00000+0  63762-3 0  9995
2 61912  42.9985 241.7736 0001770 282.6182  77.4472 15.27584815 76394
